LEMUR-2-ALISIA          
1 62706U 25009DB  26161.47689286  .00007077  00000+0  53483-3 0  9999
2 62706  97.6967 243.6925 0001219 188.3896 171.7308 15.02674727 99156
LEMUR-2-ROUNDTRIPPER    
1 62711U 25009DG  26161.50605046  .00007889  00000+0  57995-3 0  9994
2 62711  97.7249 244.1948 0004618 152.6216 207.5254 15.03678332 76625
LEMUR-2-MYNAMEISJEFF    
1 62712U 25009DH  26161.17178051  .00008090  00000+0  59455-3 0  9997
2 62712  97.7295 244.2378 0002813 179.4497 180.6731 15.03687489 76576
LEMUR-2-LEIA-PHILIP     
1 63246U 25052AN  26160.65179182  .00002053  00000+0  18203-3 0  9995
2 63246  97.6847  52.7292 0002045 240.9218 119.1799 14.97296809 67542
LEMUR-2-LIA-MARTIN      
1 63248U 25052AQ  26161.26046774  .00004621  00000+0  39877-3 0  9998
2 63248  97.6915  53.7922 0002473 167.0129 193.1157 14.97749506 67644
LEMUR-2-DELOITTE-1      
1 63259U 25052BB  26161.23592069  .00003508  00000+0  30550-3 0  9992
2 63259  97.6924  54.0968 0002724 111.2651 248.8863 14.97549341 67658
LEMUR-2-EMERSONROSE     
1 63261U 25052BD  26161.28470299  .00003050  00000+0  25634-3 0  9999
2 63261  97.6904  54.6910 0002259  68.6672 291.4791 14.99033318 67707
LEMUR-2-MARACHE-FRAN    
1 63262U 25052BE  26161.46480417  .00005138  00000+0  41735-3 0  9992
2 63262  97.6954  55.1700 0006077  45.0881 315.0835 15.00031062 67753
LEMUR-2-THEFALCONER     
1 63264U 25052BG  26161.46181859  .00003475  00000+0  30428-3 0  9991
2 63264  97.6884  53.9471 0003449  54.6793 305.4751 14.97347706 67688
LEMUR-2-UNTITLED-SC     
1 63351U 25061A   26161.47710741  .00003476  00000+0  19771-3 0  9996
2 63351  97.5629 136.8878 0017068 290.3097  69.6300 15.13424570 66571
LEMUR-2-ESPERANZA       
1 63352U 25061B   26161.19020265  .00003008  00000+0  17116-3 0  9993
2 63352  97.5637 136.6951 0016592 290.8274  69.1180 15.13517589 66534
LEMUR-2-KREMPEL-BRO2    
1 63353U 25061C   26160.88872206  .00003773  00000+0  21109-3 0  9995
2 63353  97.5684 136.9196 0017530 283.4459  76.4818 15.13949569 66500
LEMUR-2-THERMORAPTOR    
1 63354U 25061D   26161.46598539  .00003570  00000+0  19955-3 0  9996
2 63354  97.5690 137.5679 0017165 280.2186  79.7110 15.14033443 66593
LEMUR-2-NEUROSPICY      
1 63355U 25061E   26161.23991082  .00003215  00000+0  17963-3 0  9995
2 63355  97.5615 136.9747 0015028 285.3271  74.6300 15.14145542 66563
LEMUR-2-TILLINFINITY    
1 63356U 25061F   26161.47603792  .00003756  00000+0  20573-3 0  9991
2 63356  97.5601 137.4951 0016218 270.9166  89.0207 15.14734058 66626
LEMUR-2-KREMPEL-BRO1    
1 63357U 25061G   26161.18437184  .00003135  00000+0  17324-3 0  9991
2 63357  97.5602 137.1232 0016830 273.4183  86.5124 15.14537477 66574
LEMUR-2-LANGER2SPACE    
1 63358U 25061H   26161.47380829  .00003668  00000+0  20388-3 0  9992
2 63358  97.5607 137.2275 0014924 282.4888  77.4674 15.14236035 66601
LEMUR-2-BALTO           
1 63395U 25052BH  26161.18257536  .00005336  00000+0  43347-3 0  9993
2 63395  97.6888  54.8741 0006709  75.2833 284.9133 15.00010105 67717
LEMUR-2-KRISH           
1 64561U 25135AK  26161.11897802  .00004653  00000+0  41845-3 0  9992
2 64561  97.7724 276.0451 0001372 108.0984 252.0386 14.96138537 52862
LEMUR-2-HUBBLE-4        
1 64565U 25135AP  26161.10009219  .00001080  00000+0  10884-3 0  9992
2 64565  97.7691 275.0926 0001455 349.4194  10.6995 14.93177056 52816
LEMUR-2-SEJONG-2        
1 64586U 25135BL  26161.21816144  .00003657  00000+0  32574-3 0  9992
2 64586  97.7685 276.2878 0004413  11.3073 348.8247 14.96646531 52907
LEMUR-2-HUBBLE-5        
1 64840U 25135BT  26161.32649838  .00001737  00000+0  16780-3 0  9999
2 64840  97.7711 275.9387 0005611  17.2157 342.9252 14.94114676 52886
LEMUR-2-KARENDARRELL    
1 64841U 25135BU  26161.31422316  .00007023  00000+0  56869-3 0  9995
2 64841  97.7668 277.5351 0009221 228.7394 131.3036 15.00010918 52983
LEMUR-2-LUCILLE-ROSE    
1 65403U 25135BV  26160.28759471  .00006001  00000+0  48609-3 0  9998
2 65403  97.7767 276.5201 0010698 313.8437  46.1901 15.00053411 47450
LEMUR-2-AFFIE-WAUWIE    
1 66295U 25248C   26161.25212135  .00012829  00000+0  48614-3 0  9993
2 66295  45.3855 152.5549 0008368  38.3394 321.8088 15.26939127 33535
LEMUR-2-DEANANDMAEVE    
1 66678U 25276N   26161.46682963  .00006073  00000+0  28787-3 0  9995
2 66678  97.4214 235.0542 0006362  36.8396 323.3275 15.19650373 29393
LEMUR-2-STAS-GORBUK     
1 66686U 25276W   26161.15049603  .00005503  00000+0  26379-3 0  9990
2 66686  97.4248 234.7986 0005807  37.9658 322.1985 15.19305724 29340
LEMUR-2-TEODOR          
1 66768U 25276DG  26161.47092950  .00005385  00000+0  24609-3 0  9991
2 66768  97.4153 235.3417 0001946 122.1767 237.9658 15.20977088 29429
LEMUR-2-LAILA           
1 66776U 25276DQ  26161.51159873  .00005002  00000+0  22736-3 0  9998
2 66776  97.4177 235.4983 0001781 144.5467 215.5887 15.21197236 29432
LEMUR-2-CELIJO-SB-PK    
1 66781U 25276DW  26161.43215773  .00005406  00000+0  44011-3 0  9995
2 66781  97.5278 232.4306 0008890 148.5978 211.5778 14.99890406 21616
